STARLINK-30598          
1 58079U 23160E   25321.99209348  .00006265  00000+0  47849-3 0  9991
2 58079  43.0044 327.3698 0001497 277.8267  82.2406 15.02532200116116
STARLINK-30603          
1 58080U 23160F   25323.71719069  .00002100  00000+0  17045-3 0  9990
2 58080  43.0056 317.9520 0000944 283.5533  76.5204 15.02535326116378
STARLINK-30602          
1 58081U 23160G   25321.75602454  .00001713  00000+0  14185-3 0  9993
2 58081  43.0049 328.1657 0001472 274.4743  85.5931 15.02545606116082
STARLINK-30610          
1 58082U 23160H   25323.71385468  .00000831  00000+0  76553-4 0  9993
2 58082  43.0046 317.9245 0001038 270.4064  89.6660 15.02539186116371
STARLINK-30551          
1 58083U 23160J   25323.71053102  .00000351  00000+0  41051-4 0  9993
2 58083  43.0045 317.8957 0001008 274.9462  85.1266 15.02532834116374
STARLINK-30586          
1 58084U 23160K   25323.70720104  .00000683  00000+0  65612-4 0  9993
2 58084  43.0034 317.8727 0000890 269.4824  90.5916 15.02531277116379
STARLINK-30609          
1 58085U 23160L   25323.70389139 -.00001070  00000+0 -64185-4 0  9990
2 58085  43.0064 317.8492 0001232 265.4262  94.6440 15.02513018116375
STARLINK-30583          
1 58086U 23160M   25323.70055741  .00014239  00000+0  10687-2 0  9995
2 58086  43.0031 317.8222 0000389 285.6287  74.4512 15.02475738116376
STARLINK-30557          
1 58087U 23160N   25323.69943016  .00000022  00000+0  16709-4 0  9993
2 58087  43.0113 317.8190 0001472 273.5853  86.4821 15.02548338116374
STARLINK-30591          
1 58088U 23160P   25323.69387581  .00000094  00000+0  22007-4 0  9990
2 58088  43.0107 317.7744 0001217 267.6759  92.3944 15.02541468116377
STARLINK-30584          
1 58089U 23160Q   25323.69055025  .00000449  00000+0  48312-4 0  9997
2 58089  43.0101 317.7509 0001257 265.5972  94.4727 15.02536999116374
STARLINK-30590          
1 58090U 23160R   25323.69720502 -.00000259  00000+0 -41231-5 0  9993
2 58090  43.0043 317.7951 0001226 263.2889  96.7814 15.02534433116373
STARLINK-30608          
1 58091U 23160S   25323.68722167  .00001659  00000+0  13785-3 0  9996
2 58091  43.0027 317.7212 0000908 276.9936  83.0803 15.02527036116374
STARLINK-30615          
1 58092U 23160T   25323.68277671  .00003595  00000+0  28102-3 0  9992
2 58092  43.0038 317.6862 0001336 271.4712  88.5977 15.02539938116371
STARLINK-30578          
1 58093U 23160U   25323.26183054  .00001261  00000+0  10840-3 0  9996
2 58093  43.0022 320.5389 0001125 265.5353  94.5360 15.02537584116304
STARLINK-30574          
1 58094U 23160V   25323.28168704  .00000606  00000+0  59996-4 0  9992
2 58094  43.0072 319.8415 0003066 276.4150  83.6344 15.02540518116316
STARLINK-30570          
1 58095U 23160W   25323.67723295 -.00000127  00000+0  56535-5 0  9994
2 58095  43.0051 317.6487 0000785 259.1452 100.9302 15.02537101116374
STARLINK-30581          
1 58096U 23160X   25323.27181881  .00000540  00000+0  55065-4 0  9994
2 58096  43.0043 320.6094 0001162 270.1747  89.8962 15.02534422116307
STARLINK-30594          
1 58097U 23161A   25323.70982900 -.00000103  00000+0  86383-5 0  9999
2 58097  53.1618 316.3507 0001120  85.5144 274.5984 15.30195693117584
STARLINK-30614          
1 58098U 23161B   25323.31478764  .00003973  00000+0  14634-3 0  9990
2 58098  53.1615 318.1525 0001376  80.4278 279.6879 15.30166996117524
STARLINK-30607          
1 58099U 23161C   25323.25270723  .00001204  00000+0  52780-4 0  9999
2 58099  53.1621 308.4771 0001356  83.8599 276.2556 15.30195357117649
STARLINK-30600          
1 58100U 23161D   25323.71620744 -.00005370  00000+0 -16960-3 0  9994
2 58100  53.1625 316.3788 0001868  98.4773 261.6440 15.30141280117585
STARLINK-30605          
1 58101U 23161E   25323.70245578  .00003738  00000+0  13839-3 0  9998
2 58101  53.1614 316.3023 0001790 104.6924 255.4276 15.30172840117582
STARLINK-30592          
1 58102U 23161F   25323.30738997  .00001036  00000+0  47109-4 0  9994
2 58102  53.1616 318.1016 0001295 100.5898 259.5249 15.30192463117524
STARLINK-30589          
1 58103U 23161G   25323.28214010  .00001695  00000+0  69351-4 0  9991
2 58103  53.1620 318.4580 0001314  98.3259 261.7891 15.30201167117515
STARLINK-30617          
1 58104U 23161H   25323.67720161  .00000199  00000+0  18843-4 0  9992
2 58104  53.1627 316.6588 0001331  88.2541 271.8612 15.30193679117579
STARLINK-30616          
1 58105U 23161J   25323.24149525  .00000414  00000+0  26101-4 0  9991
2 58105  53.1601 305.4508 0000988  80.0551 280.0561 15.30193955117682
STARLINK-30612          
1 58106U 23161K   25323.18356889  .00000261  00000+0  20926-4 0  9997
2 58106  53.1619 305.8149 0001265  90.3127 269.8018 15.30196433117685
STARLINK-30421          
1 58107U 23161L   25323.64604421  .00000253  00000+0  20682-4 0  9997
2 58107  53.1607 303.6880 0001136  86.5723 273.5408 15.30194602117756
STARLINK-30611          
1 58108U 23161M   25323.66715021  .00000674  00000+0  34881-4 0  9992
2 58108  53.1623 303.7982 0001455  98.4793 261.6373 15.30189009117756
STARLINK-30606          
1 58109U 23161N   25323.71300126  .00000320  00000+0  22933-4 0  9998
2 58109  53.1625 316.3655 0001530  87.6279 272.4897 15.30187050117585
STARLINK-30596          
1 58110U 23161P   25323.68978346  .00002814  00000+0  10716-3 0  9996
2 58110  53.1616 316.2219 0001360  85.1168 274.9988 15.30179959117580
STARLINK-30595          
1 58111U 23161Q   25323.79097887  .00001127  00000+0  50188-4 0  9995
2 58111  53.1619 316.1447 0000828  76.5807 283.5286 15.30189800117592
STARLINK-30593          
1 58112U 23161R   25323.72249808 -.00000048  00000+0  10515-4 0  9993
2 58112  53.1622 316.4249 0001394  83.6911 276.4249 15.30192053117587
STARLINK-30353          
1 58113U 23161S   25323.27478902  .00001590  00000+0  65815-4 0  9998
2 58113  53.1602 318.6091 0001279  86.0077 274.1070 15.30195898117517
STARLINK-30572          
1 58114U 23161T   25323.26212542  .00000373  00000+0  24733-4 0  9996
2 58114  53.1613 318.5262 0001404  88.6374 271.4788 15.30191230117519
STARLINK-30580          
1 58115U 23161U   25323.69295226  .00000173  00000+0  17986-4 0  9994
2 58115  53.1614 316.2227 0001033 101.9546 258.1571 15.30183362117581
STARLINK-30493          
1 58116U 23161V   25323.27162033  .00000016  00000+0  12666-4 0  9994
2 58116  53.1616 318.5934 0001394 113.0631 247.0517 15.30201471117515
STARLINK-30601          
1 58117U 23161W   25323.27795067  .00003117  00000+0  11727-3 0  9995
2 58117  53.1626 318.6297 0001201  94.9522 265.1616 15.30208836117516
STARLINK-30795          
1 58118U 23162A   25323.83051596  .00006382  00000+0  48738-3 0  9990
2 58118  43.0060  10.0963 0000373 322.3921  37.6895 15.02511909115774
STARLINK-30765          
1 58119U 23162B   25323.51587764 -.00000070  00000+0  98555-5 0  9990
2 58119  42.9974  12.0263 0000989 260.7800  99.2930 15.02533130115725
STARLINK-30768          
1 58120U 23162C   25323.82717663  .00000493  00000+0  51552-4 0  9992
2 58120  43.0034  10.0741 0001420 278.9521  81.1160 15.02534049115777
STARLINK-30799          
1 58121U 23162D   25323.51476258  .00000838  00000+0  77080-4 0  9998
2 58121  43.0034  12.0115 0001196 276.9122  83.1584 15.02537479115727
STARLINK-30759          
1 58122U 23162E   25323.82495855  .00000306  00000+0  37712-4 0  9995
2 58122  43.0075  10.0572 0001092 258.4858 101.5862 15.02536176115787
STARLINK-30781          
1 58123U 23162F   25323.82384679  .00002441  00000+0  19570-3 0  9990
2 58123  43.0057  10.0445 0001313 270.9501  89.1191 15.02534062115774
STARLINK-30754          
1 58124U 23162G   25322.84665948 -.00000432  00000+0 -16910-4 0  9999
2 58124  43.0034  15.5962 0001190 276.4784  83.5923 15.02531182109832
STARLINK-30766          
1 58125U 23162H   25323.82051583  .00000285  00000+0  36163-4 0  9999
2 58125  43.0066  10.0212 0001260 272.0572  88.0126 15.02538563115776
STARLINK-30767          
1 58126U 23162J   25323.81718726  .00000634  00000+0  62010-4 0  9996
2 58126  43.0052   9.9964 0001026 267.7863  92.2862 15.02536952115771
STARLINK-30790          
1 58127U 23162K   25323.54460875  .00031409  00000+0  22812-2 0  9994
2 58127  43.0037  11.3876 0000765 286.2248  73.8511 15.03330939115736
STARLINK-30787          
1 58128U 23162L   25322.87983898 -.00001005  00000+0 -59330-4 0  9993
2 58128  43.0052  15.0030 0001553 270.9926  89.0739 15.02533517115632
STARLINK-30756          
1 58129U 23162M   25323.50810633  .00000946  00000+0  85097-4 0  9991
2 58129  43.0054  11.9560 0000857 285.3471  74.7277 15.02531826115728
STARLINK-30783          
1 58130U 23162N   25323.54128752  .00001243  00000+0  10706-3 0  9996
2 58130  43.0045  11.3614 0001397 271.1837  88.8846 15.02533905115732
STARLINK-30757          
1 58131U 23162P   25323.40500383 -.00000389  00000+0 -13732-4 0  9991
2 58131  43.0110  12.0578 0002137 273.1293  86.9305 15.02531410115710
STARLINK-30770          
1 58132U 23162Q   25323.50477782 -.00000267  00000+0 -46779-5 0  9992
2 58132  43.0048  11.9231 0001308 286.3040  73.7658 15.02543829115723
STARLINK-30758          
1 58133U 23162R   25323.40388883 -.00000233  00000+0 -21988-5 0  9993
2 58133  43.0038  12.0526 0000899 269.0517  91.0222 15.02542885115713
STARLINK-30761          
1 58134U 23162S   25323.43496809  .00000743  00000+0  70083-4 0  9998
2 58134  43.0059  12.2693 0001346 278.8034  81.2656 15.02531984115714
STARLINK-30772          
1 58135U 23162T   25323.20235516 -.00000195  00000+0  61039-6 0  9995
2 58135  43.0043  13.9637 0001271 269.7469  90.3228 15.02537378115676
STARLINK-30776          
1 58136U 23162U   25322.86108541  .00000483  00000+0  50853-4 0  9993
2 58136  43.0029  15.6874 0000961 280.0952  79.9781 15.02533969115625
STARLINK-30782          
1 58137U 23162V   25322.53090590 -.00006149  00000+0 -44051-3 0  9991
2 58137  43.0090  17.5237 0002660 266.5078  93.5460 15.02530912115579
